LicenseNumber,LicenseType,LicenseStatus,LicenseSubStatus,BusinessName,LocationStreetAddress,LocationCity,LocationState,LocationZip,LocationCounty,Phone,Fax,FirstIssuanceDate,LicenseEffectiveDate,LicenseExpirationDate,BoardAction,Designated Representative License Number,Designated Representative,Latitude,Longitude
MMD.0700155,Medical Marijuana Dispensary - Certificate of Operation,Active,,Amplify,5304 N Hamilton Rd,Columbus,OH,43230-1318,Franklin,(440) 530-2880,,2023.02.07,2023.02.07,2025.07.01,No,MME.05200839,Michael Reed,40.1040964,-82.8470007
MMD.0700092,Medical Marijuana Dispensary - Certificate of Operation,Active,,Amplify,1782 Coventry Rd,Cleveland Heights,OH,44118-1630,Cuyahoga,(440) 552-4139,,2022.03.16,2023.07.02,2025.07.01,No,MME.05201032,Marvin Andrew Keyes,41.51120590909091,-81.58008781818181
MMD.0700158,Medical Marijuana Dispensary - Certificate of Operation,Active,,Ayr Wellness,"27900 Chagrin Blvd, Suites 900B and 900C",Woodmere,OH,44122,Cuyahoga,(216) 230-8328,,2023.10.30,2023.10.30,2025.07.01,No,MME.05200436,Timothy Daniel Stakolich,41.46225696969697,-81.48120334343434
MMD.0700138,Medical Marijuana Dispensary - Certificate of Operation,Active,,Ayr Wellness,6722 State Route 132,Goshen,OH,45122-9249,Clermont,(937) 281-7696,,2023.11.01,2023.11.01,2025.07.01,No,MME.05100317,Paul Lee,39.229659821117096,-84.16336149843058
MMD.0700138,Medical Marijuana Dispensary - Certificate of Operation,Active,,Ayr Wellness,6722 State Route 132,Goshen,OH,45122-9249,Clermont,(937) 281-7696,,2023.11.01,2023.11.01,2025.07.01,No,MME.05200770,Jeffery Robert Burwell,39.229659821117096,-84.16336149843058
MMD.0700111,Medical Marijuana Dispensary - Certificate of Operation,Active,,Backroad Wellness,1503 Harding Hwy,Lima,OH,45804-3173,Allen,(567) 289-6031,,2023.03.30,2023.03.30,2025.07.01,No,MME.05200215,Sarah Louise McCullough,39.229659821117096,-84.16336149843058
MMD.0700135,Medical Marijuana Dispensary - Certificate of Operation,Active,,Backroad Wellness,5748 Glenn Hwy,Cambridge,OH,43725-8769,Guernsey,(740) 255-5592,,2023.03.30,2023.03.30,2025.07.01,No,MME.05201271,Ashland Cale Gentry,40.015685,-81.6155897
MMD.0700165,Medical Marijuana Dispensary - Certificate of Operation,Active,,Backroad Wellness,3210 Rhodes Ave,New Boston,OH,45662-4912,Scioto,(740) 876-4127,,2023.06.21,2023.06.21,2025.07.01,No,MME.05201447,Laura Adkins,38.744026845341665,-82.95026343465176
MMD.0700099,Medical Marijuana Dispensary - Certificate of Operation,Active,,Bear River Dispensary,26 Moore St,Delaware,OH,43015-2027,Delaware,(740) 361-7569,,2023.02.08,2023.02.08,2025.07.01,No,MME.05100331,Tammie Beechum,40.298662981179504,-83.04869336935378
MMD.0700098,Medical Marijuana Dispensary - Certificate of Operation,Active,,BEYOND / HELLO,693 Old State Route 74,Cincinnati,OH,45245,Clermont,(513) 993-3993,,2022.12.29,2022.12.29,2025.07.01,No,MME.05201422,Matthew Scott Davidson,39.512348249999995,-84.390254
MMD.0700119,Medical Marijuana Dispensary - Certificate of Operation,Active,,Bliss Ohio,331 E Main St,Kent,OH,44240-2540,Portage,(330) 765-2508,,2023.04.19,2023.04.19,2025.07.01,No,MME.05201034,Haley Madison Richards,41.15384407512064,-81.35419411174303
MMD.0700025,Medical Marijuana Dispensary - Certificate of Operation,Active,,Bloom Medicinals,1361 Georgesville Rd,Columbus,OH,43228-3611,Franklin,(614) 407-1616,Bloom Medicinals,2019.07.26,2023.07.02,2025.07.01,No,MME.05200620,Gavin McKenney,39.92586710090244,-83.11756633554553
MMD.0700018,Medical Marijuana Dispensary - Certificate of Operation,Active,,Bloom Medicinals,382 Blackbrook Rd,Painesville,OH,44077-1294,Lake,(440) 299-1019,,2019.05.16,2023.07.02,2025.07.01,No,MME.05200525,Christopher James Chagnon,39.92586710090244,-83.11756633554553
MMD.0700031,Medical Marijuana Dispensary - Certificate of Operation,Active,,Bloom Medicinals,403 S Main St,Seven Mile,OH,45011,Butler,(513) 447-6459,Bloom Medicinals,2019.09.10,2023.07.02,2025.07.01,No,MME.05201177,Abigail Jane McFall,41.72321110743085,-81.2834518839287
MMD.0700045,Medical Marijuana Dispensary - Certificate of Operation,Active,,Bloom Medicinals,737 E North St,Akron,OH,44305-1115,Summit,(567) 213-5101,,2019.10.29,2023.07.02,2025.07.01,No,MME.05200868,Amanda Rhea Scharon,41.0879755,-81.49116467041935
MMD.0700030,Medical Marijuana Dispensary - Certificate of Operation,Active,,Bloom Medicinals,1238 Conant St,Maumee,OH,43537-1608,Lucas,(567) 296-9082,,2019.09.04,2023.07.02,2025.07.01,No,MME.05200955,Austin James Leite,41.57126966574167,-83.65834955623589
MMD.0700054,Medical Marijuana Dispensary - Certificate of Operation,Active,,Body and Mind,709 Sugar Ln,Elyria,OH,44035-6313,Lorain,(440) 252-4046,,2020.09.04,2023.07.02,2025.07.01,No,MME.05200203,Aaron Jerue Maholtz,41.35981786666667,-82.0731494
MMD.0700171,Medical Marijuana Dispensary - Certificate of Operation,Active,,Body and Mind,709 Sugar Ln,Elyria,OH,44035-6313,Lorain,4072565307,,2023.10.11,2023.10.11,2025.07.01,No,MME.05200203,Aaron Jerue Maholtz,41.35981786666667,-82.0731494
MMD.0700071,Medical Marijuana Dispensary - Certificate of Operation,Active,,"Cannascend Alternative Logan, LLC",245 W Main St,Logan,OH,43138-1607,Hocking,(740) 300-1821,,2021.06.30,2023.07.02,2025.07.01,No,MME.05200387,STEPHANIE ANNE THOMAS,39.540286615703664,-82.41256839319543
MMD.0700073,Medical Marijuana Dispensary - Certificate of Operation,Active,,"Cannascend Alternative, LLC",333 Wayne Ave,Dayton,OH,45410-1115,Montgomery,(937) 233-0642,,2021.06.30,2023.07.02,2025.07.01,No,MME.05200656,Amanda Goins,39.7556205,-84.1810377747592
MMD.0700072,Medical Marijuana Dispensary - Certificate of Operation,Active,,"Cannascend Alternative, LLC",300 N Main St,Monroe,OH,45050-1495,Butler,(513) 506-1857,,2021.06.30,2023.07.02,2025.07.01,No,MME.05200857,Sean Patrick Flannery,43.11524166666667,-77.88438296666666
MMD.0700070,Medical Marijuana Dispensary - Certificate of Operation,Active,,"Cannascend Alternative, LLC",414 Greene St,Marietta,OH,45750-3214,Washington,(740) 238-7603,,2021.06.30,2023.07.02,2025.07.01,No,MME.05200199,Cory William Davis,39.413191806392724,-81.44770968307412
MMD.0700115,Medical Marijuana Dispensary - Certificate of Operation,Active,,Consume Oxford,3620 Southpoint Pkwy,Oxford,OH,45056-8006,Butler,(513) 280-7376,,2023.02.06,2023.02.06,2025.07.01,No,MME.05200981,DEANNA LYNN EVANS,39.413191806392724,-81.44770968307412
MMD.0700112,Medical Marijuana Dispensary - Certificate of Operation,Active,,Culture Cannabis Club,1568 E Archwood Ave,Akron,OH,44306-3212,Summit,(804) 806-5240,,2023.10.06,2023.10.06,2025.07.01,No,MME.05200650,Jacqueline W Turkovich,41.04760319565217,-81.47554935869564
MMD.0700091,Medical Marijuana Dispensary - Certificate of Operation,Active,,Curaleaf,1150 N 21st St,Newark,OH,43055-2924,Licking,(781) 451-0150,,2021.12.30,2023.07.02,2025.07.01,No,MME.05200079,Amy Marie LeMaster,40.07962731691229,-82.42817588587859
MMD.0700090,Medical Marijuana Dispensary - Certificate of Operation,Active,,Curaleaf,1220 Buchholzer Blvd Ste C,Cuyahoga Falls,OH,44221-5179,Summit,7814510150,,2021.12.30,2023.07.02,2025.07.01,No,MME.05200852,Courtney McDaniel,40.07962731691229,-82.42817588587859
MMD.0700154,Medical Marijuana Dispensary - Certificate of Operation,Active,,Debbie's Dispensary,"1100 McArthur Rd NW, Suite 1122",Jeffersonville,OH,43128-1091,Fayette,(740) 488-0150,,2023.08.10,2023.08.10,2025.07.01,No,MME.05201699,Johnny Jaden McFadden,44.933143,7.540121
MMD.0700117,Medical Marijuana Dispensary - Certificate of Operation,Active,,Debbie's Dispensary,544 Richland Ave,Athens,OH,45701-3703,Athens,(740) 249-4143,,2023.08.14,2023.08.14,2025.07.01,No,MME.05201464,Amanda Jayne Coy,39.304922902458436,-82.10323988027181
MMD.0700107,Medical Marijuana Dispensary - Certificate of Operation,Active,,Elevated Growth,7520 High Cross Blvd,Columbus,OH,43235-5681,Franklin,(614) 505-0015,,2023.10.02,2023.10.02,2025.07.01,No,MME.05200178,Darius Bobo,40.1164399,-83.01165900245579
MMD.0700093,Medical Marijuana Dispensary - Certificate of Operation,Active,,Ethos,1525 Genntown Dr Ste B5,Lebanon,OH,45036-7323,Warren,(856) 364-7413,,2022.04.25,2023.07.02,2025.07.01,No,MME.05200888,Alisha Rene Batac,40.1164399,-83.01165900245579
MMD.0700007,Medical Marijuana Dispensary - Certificate of Operation,Active,,FARMACEUTICALRX LLC,1865 Dresden Ave,East Liverpool,OH,43920-9059,Columbiana,(724) 655-3335,234-206-4042,2019.02.06,2023.07.02,2025.07.01,No,MME.05200982,Jessica Winters,40.6240041,-80.5804563
MMD.0700065,Medical Marijuana Dispensary - Certificate of Operation,Active,,Firelands Scientific,2300 University Dr E,Huron,OH,44839-9173,Erie,(419) 616-5112,,2021.05.21,2023.07.02,2025.07.01,No,MME.05200509,Matthew James Neiding,41.396788,-82.5877233
MMD.0700157,Medical Marijuana Dispensary - Certificate of Operation,Active,,Good River Wellness,27101 Euclid Ave,Euclid,OH,44132-3409,Cuyahoga,(216) 331-5726,,2023.10.26,2023.10.26,2025.07.01,No,MME.05200362,Kody F Miller,41.591196,-81.496727
MMD.0700074,Medical Marijuana Dispensary - Certificate of Operation,Active,,"Green Leaf Medical of Ohio II, LLC",2932 Youngstown Rd SE,Warren,OH,44484-5281,Trumbull,(330) 469-9499,,2021.06.11,2023.07.02,2025.07.01,No,MME.05200274,ABIGAIL JOY NICOLAUS,41.22103,-80.782032
MMD.0700151,Medical Marijuana Dispensary - Certificate of Operation,Active,,Green Leaf Therapy,93 S Bridge St,Struthers,OH,44471-1949,Mahoning,(330) 333-3170,,2023.04.25,2023.04.25,2025.07.01,No,MME.05100409,Cory Groner,41.05733410204082,-80.5872762244898
MMD.0700124,Medical Marijuana Dispensary - Certificate of Operation,Active,,Green Releaf,3620 Germantown St,Dayton,OH,45417-4130,Montgomery,(937) 938-1128,,2023.04.04,2023.04.04,2025.07.01,No,MME.05100305,SANJAYKUMAR ARVINDKUMAR PATEL,39.724032,-84.267023
MMD.0700081,Medical Marijuana Dispensary - Certificate of Operation,Active,,"Greenleaf Apothecaries, LLC",115 Vine St,Columbus,OH,43215-2307,Franklin,(614) 924-2155,,2021.10.01,2023.07.02,2025.07.01,No,MME.05200442,Erik Gott,39.9714688,-83.0058194
MMD.0700084,Medical Marijuana Dispensary - Certificate of Operation,Active,,"Greenleaf Apothecaries, LLC",3840 Greentree Ave SW,Canton,OH,44706-4025,Stark,(330) 623-7430,,2021.10.01,2023.07.02,2025.07.01,No,MME.05200968,Carl Rocco Palladino,39.9714688,-83.0058194
MMD.0700083,Medical Marijuana Dispensary - Certificate of Operation,Active,,"Greenleaf Apothecaries, LLC",30133 Euclid Ave,Wickliffe,OH,44092-1652,Lake,440-671-0420,,2021.10.01,2023.07.02,2025.07.01,No,MME.05200336,DeAnna Hoffart,41.61615895,-81.46180649462025
MMD.0700082,Medical Marijuana Dispensary - Certificate of Operation,Active,,"Greenleaf Apothecaries, LLC",3865 Lakeside Ave E,Cleveland,OH,44114-3843,Cuyahoga,(216) 930-6550,,2021.10.01,2023.07.02,2025.07.01,No,MME.05200479,GYEN JAMES MUSGRAVE,41.51786482417333,-81.66765523756288
MMD.0700080,Medical Marijuana Dispensary - Certificate of Operation,Active,,"Greenleaf Apothecaries, LLC",46 S Summit St,Akron,OH,44308-1719,Summit,(330) 368-2144,,2021.10.01,2023.07.02,2025.07.01,No,MME.05201015,NANCY LOUISE MITCHNER,41.0828679,-81.5143582
MMD.0700026,Medical Marijuana Dispensary - Certificate of Operation,Active,,"GTI Ohio, LLC",1222 Prospect Ave E,Cleveland,OH,44115-1210,Cuyahoga,(216) 243-0165,,2019.07.30,2023.07.02,2025.07.01,No,MME.05200490,Brandon James Lhotsky,41.4993905,-81.6821647
MMD.0700047,Medical Marijuana Dispensary - Certificate of Operation,Active,,"GTI Ohio, LLC",11818 Madison Ave,Lakewood,OH,44107-5252,Cuyahoga,(216) 273-0088,,2019.12.18,2023.07.02,2025.07.01,No,MME.05200503,Joel Gibson,41.476974204081635,-81.77071720408163
MMD.0700052,Medical Marijuana Dispensary - Certificate of Operation,Active,,"GTI Ohio, LLC",18607 Detroit Ave,Lakewood,OH,44107-3205,Cuyahoga,(216) 273-0062,,2020.03.11,2023.07.02,2025.07.01,No,MME.05200161,VICTORIA LEE UGUCCINI,41.4852471,-81.8107073
MMD.0700015,Medical Marijuana Dispensary - Certificate of Operation,Active,,"GTI Ohio, LLC",3157 W Sylvania Ave,Toledo,OH,43613-4131,Lucas,(419) 365-2558,,2019.05.01,2023.07.02,2025.07.01,No,MME.05200494,TIFFANY LAREA BROSE,41.691798285714285,-83.61900071428572
MMD.0700016,Medical Marijuana Dispensary - Certificate of Operation,Active,,"GTI Ohio, LLC",1920 Cooper Foster Park Rd W,Lorain,OH,44053-3607,Lorain,(440) 363-0237,,2019.05.01,2023.07.02,2025.07.01,No,MME.05200382,CHRISTOPHER BRIAN SMURTHWAITE,41.4182086,-82.1741749
MMD.0700118,Medical Marijuana Dispensary - Certificate of Operation,Active,,Guaranteed Dispensary,1910 Wayne Ave,Dayton,OH,45410-2133,Montgomery,(937) 401-2550,,2023.05.12,2023.05.12,2025.07.01,No,MME.05200089,SARA A HAWKINS,39.743022,-84.167257
MMD.0700096,Medical Marijuana Dispensary - Certificate of Operation,Active,,Herbal Wellness Center,3 Acy Ave Ste A,Jackson,OH,45640-8551,Jackson,(740) 577-9367,,2022.12.12,2023.07.02,2025.07.01,No,MME.05201244,Justus Joey Miller,39.50714403419643,-84.39175737200898
MMD.0700131,Medical Marijuana Dispensary - Certificate of Operation,Active,,Insa,27751 Chardon Rd,Willoughby Hills,OH,44092-2701,Lake,(440) 373-5005,,2023.05.02,2023.05.02,2025.07.01,No,MME.05201071,Michael Becker,41.5834257,-81.48449526671826
MMD.0700114,Medical Marijuana Dispensary - Certificate of Operation,Active,,Italian Herbs,2712 W Prospect Rd,Ashtabula,OH,44004-6336,Ashtabula,(440) 990-1600,,2023.04.12,2023.04.12,2025.07.01,No,MME.05100284,Jessica Laurello,41.8629049,-80.7977754
MMD.0700020,Medical Marijuana Dispensary - Certificate of Operation,Active,,Leaf Relief,4323 Market St,Youngstown,OH,44512-1509,Mahoning,(330) 333-3925,,2019.06.20,2023.07.02,2025.07.01,No,MME.05100140,Herbert Terrell Washington,41.0556517755102,-80.66268210204082
MMD.0700130,Medical Marijuana Dispensary - Certificate of Operation,Active,,Main Street Medical Cannabis,3111 E Main St,Columbus,OH,43209-2618,Franklin,(614) 670-4384,,2023.10.31,2023.10.31,2025.07.01,No,MME.05201744,Scott Damopoulos,39.956501,-82.914993
MMD.0700078,Medical Marijuana Dispensary - Certificate of Operation,Active,,Mavuno,711 W Union St,Athens,OH,45701-9410,Athens,(216) 312-9900,,2021.09.01,2023.07.02,2025.07.01,No,MME.05200798,Darryl Render,39.330841779946006,-82.1256239572349
MMD.0700079,Medical Marijuana Dispensary - Certificate of Operation,Active,,Mavuno,4370 Tonawanda Trl,Beavercreek,OH,45430-1951,Greene,(216) 312-9900,,2021.09.21,2023.07.02,2025.07.01,No,MME.05200803,Noah Benjamin Tucker,39.69777891574678,-84.09955878125338
MMD.0700077,Medical Marijuana Dispensary - Certificate of Operation,Active,,Mavuno,2950 N High St,Columbus,OH,43202-1104,Franklin,(216) 312-9900,,2021.08.12,2023.07.02,2025.07.01,No,MME.05201466,Aris Troy,40.0223515,-83.01314
MMD.0700150,Medical Marijuana Dispensary - Certificate of Operation,Active,,Nar Reserve,350 E Long St,Columbus,OH,43215-1827,Franklin,(380) 241-6151,,2023.06.22,2023.06.22,2025.07.01,No,MME.05100355,ALI BAZZI,39.96619042105263,-82.9912805
MMD.0700132,Medical Marijuana Dispensary - Certificate of Operation,Active,,Nectar Medical Cannabis Dispensary,1011 S Main St,Bowling Green,OH,43402-4720,Wood,(419) 819-4222,,2023.03.10,2023.03.10,2025.07.01,No,,,41.3595833,-83.6498905
MMD.0700136,Medical Marijuana Dispensary - Certificate of Operation,Active,,Nectar Medical Cannabis Dispensary,3405 Werk Rd,Cincinnati,OH,45211-6832,Hamilton,(503) 912-6797,,2023.05.15,2023.05.15,2025.07.01,No,MME.05201186,Justin Mack,39.14095305,-84.6171401387908
MMD.0700164,Medical Marijuana Dispensary - Certificate of Operation,Active,,Nectar Medical Cannabis Dispensary,21100 Saint Clair Ave,Euclid,OH,44117-1022,Cuyahoga,(216) 400-6889,,2023.04.17,2023.04.17,2025.07.01,No,,,41.582648906218644,-81.53293804120166
MMD.0700102,Medical Marijuana Dispensary - Certificate of Operation,Active,,Ohio Cannabis Company,17043 County Highway 113,Harpster,OH,43323-9308,Wyandot,(740) 496-8420,,2023.03.15,2023.03.15,2025.07.01,No,MME.05100269,Michele Minehart,41.582648906218644,-81.53293804120166
MMD.0700108,Medical Marijuana Dispensary - Certificate of Operation,Active,,Ohio Cannabis Company,8866 N County Road 25a,Piqua,OH,45356-8504,Miami,(937) 641-0620,,2023.06.01,2023.06.01,2025.07.01,No,MME.05201393,Lance A England,40.1650393445569,-84.22761297594948
MMD.0700141,Medical Marijuana Dispensary - Certificate of Operation,Active,,Ohio Cannabis Company,4016 Greentree Ave SW,Canton,OH,44706-4015,Stark,(330) 409-9577,,2023.07.19,2023.07.19,2025.07.01,No,MME.05201594,Gerald David Contrucci,40.1650393445569,-84.22761297594948
MMD.0700089,Medical Marijuana Dispensary - Certificate of Operation,Active,,Ohio Provisions,23024 County Road 621 Ste 1,Coshocton,OH,43812-8969,Coshocton,(740) 295-9182,,2021.12.21,2023.07.02,2025.07.01,No,MME.05200558,Michelle Ann Ashcraft,44.933143,7.540121
MMD.0700075,Medical Marijuana Dispensary - Certificate of Operation,Active,,Ohio Provisions,3560 Dolson Ct Ste B,Carroll,OH,43112-8701,Fairfield,(740) 993-0444,,2021.10.01,2023.07.02,2025.07.01,No,MME.05200791,Haley Grayson,44.933143,7.540121
MMD.0700003,Medical Marijuana Dispensary - Certificate of Operation,Active,,OHIO VALLEY NATURAL RELIEF LLC,840 Canton Rd,Wintersville,OH,43953-4110,Jefferson,(740) 792-4267,7407924610,2019.01.14,2023.07.02,2025.07.01,No,MME.05200733,Sarah Kay Davis,40.39025872149711,-80.72349723909387
MMD.0700127,Medical Marijuana Dispensary - Certificate of Operation,Active,,Pure Iconic,5280 College Corner Pike,Oxford,OH,45056-1047,Butler,(513) 273-1460,,2023.04.27,2023.04.27,2025.07.01,No,MME.05201344,William John Pesenecker,39.5116997,-84.7494209
MMD.0700046,Medical Marijuana Dispensary - Certificate of Operation,Active,,Pure Ohio Wellness,1875 Needmore Rd,Dayton,OH,45414-3805,Montgomery,(937) 519-1420,,2019.11.04,2023.07.02,2025.07.01,No,MME.05200188,Melinda Jo Metcalf,39.81968371361788,-84.20198068158575
MMD.0700055,Medical Marijuana Dispensary - Certificate of Operation,Active,,Pure Ohio Wellness,920 US 42 W,London,OH,43140,Madison,(740) 910-5420,,2020.09.15,2023.07.02,2025.07.01,No,MME.05200662,Jennifer R Cron,39.88024,-83.458649
MMD.0700100,Medical Marijuana Dispensary - Certificate of Operation,Active,,Ratio,1145 W High Ave,New Philadelphia,OH,44663-9618,Tuscarawas,(234) 801-4282,,2023.02.14,2023.02.14,2025.07.01,No,MME.05100387,Luke Joseph Marino,40.49324076711479,-81.46841942419869
MMD.0700137,Medical Marijuana Dispensary - Certificate of Operation,Active,,Saphyre,4066 Morse Rd,Columbus,OH,43230-1448,Franklin,(614) 333-0456,,2023.08.08,2023.08.08,2025.07.01,No,MME.05100318,Jacqueline Solomon,40.057756918367346,-82.90914553061225
MMD.0700110,Medical Marijuana Dispensary - Certificate of Operation,Active,,Shangri-La Dispensary,100 Clarence F Warner Dr,Monroe,OH,45050-3200,Butler,(513) 402-7040,,2023.07.05,2023.07.05,2025.07.01,No,MME.05201467,Austin Garrett Wiesman,40.057756918367346,-82.90914553061225
MMD.0700106,Medical Marijuana Dispensary - Certificate of Operation,Active,,Shangri-La Dispensary,211 Brooks Dr,Monroe,OH,45050-1883,Butler,(513) 360-7085,,2023.05.23,2023.05.23,2025.07.01,No,MME.05200775,jarrod Douglas Russell,39.1540073,-86.5065806
MMD.0700159,Medical Marijuana Dispensary - Certificate of Operation,Active,,Shangri-La Dispensary,4618 Saint Clair Ave,Cleveland,OH,44103-1206,Cuyahoga,(216) 471-0426,,2023.08.28,2023.08.28,2025.07.01,No,MME.05201698,Jimmie Dionte Dawson,41.51823627272727,-81.66028128282828
MMD.0700103,Medical Marijuana Dispensary - Certificate of Operation,Active,,Southern Ohio Botanicals,15451 Us Highway 23,Waverly,OH,45690-9338,Pike,(740) 496-4186,,2023.05.19,2023.05.19,2025.07.01,No,MME.05100271,JOSHUA WAYNE SMITH,41.51823627272727,-81.66028128282828
MMD.0700122,Medical Marijuana Dispensary - Certificate of Operation,Active,,Story of Cincinnati,3950 Edwards Rd,Cincinnati,OH,45209-1928,Hamilton,(513) 818-0108,,2023.09.07,2023.09.07,2025.07.01,No,MME.05200999,Virginia Lynn Penick,39.15148465517241,-84.44214162068965
MMD.0700147,Medical Marijuana Dispensary - Certificate of Operation,Active,,Story of Cincinnati II,3944 Edwards Rd,Cincinnati,OH,45209-1928,Hamilton,(513) 818-0108,,2023.08.22,2023.08.22,2025.07.01,No,MME.05201039,Sophie Dowrey,39.15140986206896,-84.44214844827587
MMD.0700139,Medical Marijuana Dispensary - Certificate of Operation,Active,,Story of Coshocton,115 N 2nd St,Coshocton,OH,43812-1560,Coshocton,(220) 666-0432,,2023.05.25,2023.05.25,2025.07.01,No,MME.05200076,Tasha Broadwater,40.27403914285715,-81.86893671428572
MMD.0700076,Medical Marijuana Dispensary - Certificate of Operation,Active,,Strawberry Fields,2950 E Main St,Columbus,OH,43209-2615,Franklin,(513) 362-4325,,2021.07.09,2023.07.02,2025.07.01,No,MME.05200386,CHRISTOPHER A JARRETT,39.95679581418788,-82.91963198073054
MMD.0700061,Medical Marijuana Dispensary - Certificate of Operation,Active,,Sunnyside,1546 W Church St,Newark,OH,43055-1532,Licking,(740) 616-8097,,2021.02.15,2023.07.02,2025.07.01,No,MME.05201112,michael lee craycraft,40.058207,-82.44772580966541
MMD.0700064,Medical Marijuana Dispensary - Certificate of Operation,Active,,Sunnyside,1641 N Bridge St,Chillicothe,OH,45601-4106,Ross,(740) 617-8910,,2021.02.15,2023.07.02,2025.07.01,No,MME.05201045,Andrea Nicole Merkamp,39.36999823414172,-82.97571895298856
MMD.0700002,Medical Marijuana Dispensary - Certificate of Operation,Active,,Sunnyside,180 Main St,Wintersville,OH,43953-3734,Jefferson,(740) 617-8649,,2018.12.12,2023.07.02,2025.07.01,Yes,MME.05200431,Karajeanne Trotter Zinsmeister,40.371537482517326,-80.68786139906227
MMD.0700063,Medical Marijuana Dispensary - Certificate of Operation,Active,,Sunnyside,5149 Kennedy Ave,Cincinnati,OH,45213-2617,Hamilton,(513) 964-1106,,2021.02.15,2023.07.02,2025.07.01,No,MME.05201841,Hayley Elizabeth Amacendes,39.166096022409135,-84.42051104548484
MMD.0700062,Medical Marijuana Dispensary - Certificate of Operation,Active,,Sunnyside,326 James Way,Marion,OH,43302-5982,Marion,(740) 617-8913,,2021.02.15,2023.07.02,2025.07.01,No,MME.05200183,Julie Ann Austin,40.578068029546685,-83.07849291440826
MMD.0700125,Medical Marijuana Dispensary - Certificate of Operation,Active,,Supergood,554 N Chestnut St,Ravenna,OH,44266-2259,Portage,(234) 703-0150,,2023.04.04,2023.04.04,2025.07.01,No,MME.05201571,Ruth A Miller,41.164876,-81.24255066666666
MMD.0700085,Medical Marijuana Dispensary - Certificate of Operation,Active,,Terrasana,183 Raydo Cir,Springfield,OH,45506-3556,Clark,937-230-6505,,2021.10.19,2023.07.02,2025.07.01,No,MME.05200627,Megan Nicole Suttles,39.8936948,-83.8160761
MMD.0700088,Medical Marijuana Dispensary - Certificate of Operation,Active,,Terrasana,1800 E State St,Fremont,OH,43420-4000,Sandusky,419-463-2703,,2021.10.19,2023.07.02,2025.07.01,No,MME.05200086,Carey Charisa Rasp,41.34256755,-83.0857432031754
MMD.0700087,Medical Marijuana Dispensary - Certificate of Operation,Active,,Terrasana,656 Grandview Ave,Columbus,OH,43215-1120,Franklin,614-434-6929,,2021.10.19,2023.07.02,2025.07.01,No,MME.05201074,DANETTE MARIE FARLOW,39.971039115515204,-83.0457912598261
MMD.0700086,Medical Marijuana Dispensary - Certificate of Operation,Active,,Terrasana,10500 Antenucci Blvd Ste 200,Garfield Heights,OH,44125,Cuyahoga,216-232-2527,,2021.10.19,2023.07.02,2025.07.01,No,MME.05200511,Jaci Lynn Atkins,39.971039115515204,-83.0457912598261
MMD.0700101,Medical Marijuana Dispensary - Certificate of Operation,Active,,The Citizen by Klutch,5152 Grove Ave,Lorain,OH,44055-3610,Lorain,(440) 766-1040,,2023.01.11,2023.01.11,2025.07.01,No,MME.05200109,LAUREN ROSE DELANDE,41.42207001010101,-82.11964423232322
MMD.0700128,Medical Marijuana Dispensary - Certificate of Operation,Active,,The Citizen by Klutch,401 Cherry Ave NE,Canton,OH,44702-1154,Stark,(330) 617-1300,,2023.06.23,2023.06.23,2025.07.01,No,MME.05200029,RONY SINHAROY,40.80018470526316,-81.37037904210526
MMD.0700104,Medical Marijuana Dispensary - Certificate of Operation,Active,,The Forest Cincinnati,4412 Mount Carmel Tobasco Rd,Cincinnati,OH,45244-2201,Clermont,(513) 676-0775,,2023.08.28,2023.08.28,2025.07.01,No,MME.05200402,Andre Foster Lopez,40.80018470526316,-81.37037904210526
MMD.0700006,Medical Marijuana Dispensary - Certificate of Operation,Active,,"THE FOREST SANDUSKY, LLC",5020 Milan Rd,Sandusky,OH,44870-5844,Erie,(419) 405-6863,,2019.01.14,2023.07.02,2025.07.01,No,MME.05200750,Emily Davenport,41.4398642,-82.6953936
MMD.0700056,Medical Marijuana Dispensary - Certificate of Operation,Active,,"The Forest Springfield, LLC",1711 W Main St,Springfield,OH,45504-2835,Clark,(937) 441-4442,,2020.10.29,2023.07.02,2025.07.01,No,MME.05200514,Keisha Lee Karg,39.925990081632655,-83.83850226530612
MMD.0700095,Medical Marijuana Dispensary - Certificate of Operation,Active,,The Landing Dispensary,1978 W 3rd St,Cleveland,OH,44113-2525,Cuyahoga,(216) 770-4089,,2022.12.06,2022.12.06,2025.07.01,No,MME.05200596,Cody Douglas Loyd,41.491611125000006,-81.6891605
MMD.0700143,Medical Marijuana Dispensary - Certificate of Operation,Active,,The Landing Dispensary,724 W Gay St,Columbus,OH,43222-1255,Franklin,(614) 547-3750,,2023.07.24,2023.07.24,2025.07.01,No,MME.05200208,MARY A GANT,39.9635995,-83.0010619
MMD.0700121,Medical Marijuana Dispensary - Certificate of Operation,Active,,The Landing Dispensary,1312 SR-63,Monroe,OH,45050,Warren,(513) 823-9787,,2023.05.16,2023.05.16,2025.07.01,No,MME.05200349,Katie Lynn Combs,39.4399129,-84.3338463
MMD.0700109,Medical Marijuana Dispensary - Certificate of Operation,Active,,The Landing Dispensary,4029 Smith Rd,Cincinnati,OH,45209-1923,Hamilton,(513) 512-4808,,2023.09.28,2023.09.28,2025.07.01,No,MME.05201215,Abayomi Sundiata Nelson,39.434945622181196,-84.23186826603667
MMD.0700148,Medical Marijuana Dispensary - Certificate of Operation,Active,,Theory Wellness,9915 Us Highway 127,Sherwood,OH,43556-9001,Defiance,(845) 661-4866,,2023.05.05,2023.05.05,2025.07.01,No,MME.05201441,Braden Nicholas Ratliff,39.1514922,-84.4462810235774
MMD.0700146,Medical Marijuana Dispensary - Certificate of Operation,Active,,Thrive Wellness Dispensary,318 W Market St,Tiffin,OH,44883-2733,Seneca,(419) 455-6925,,2023.06.07,2023.06.07,2025.07.01,No,MME.05201608,AMY C HAYFIELD,41.11317040816327,-83.19217506122449
MMD.0700116,Medical Marijuana Dispensary - Certificate of Operation,Active,,Trulieve Medical Marijuana Dispensary,8295 Sancus Blvd,Columbus,OH,43081-7508,Franklin,850-544-6703,,2023.06.30,2023.06.30,2025.07.01,No,MME.05201336,Christine Marie Quinn,40.13522133257624,-82.99196115010412
MMD.0700140,Medical Marijuana Dispensary - Certificate of Operation,Active,,Uplift,401 Rivers Edge,Milford,OH,45150-2589,Clermont,(513) 587-8787,,2023.04.19,2023.04.19,2025.07.01,No,MME.05201047,Kyle Douglas Graef,39.16166819231402,-84.27245042305793
MMD.0700097,Medical Marijuana Dispensary - Certificate of Operation,Active,,Uplift,101 Mercy Blvd,Mount Orab,OH,45154-0296,Brown,(513) 399-8377,,2023.01.18,2023.01.18,2025.07.01,No,MME.05201213,Eric L Gibson,39.044848,-83.9439377
MMD.0700144,Medical Marijuana Dispensary - Certificate of Operation,Active,,Verdant Creations,876 State Route 61,Marengo,OH,43334-8712,Morrow,(740) 200-0760,,2023.08.10,2023.08.10,2025.07.01,No,MME.05201643,Jeffrey Edward Lucas,39.044848,-83.9439377
MMD.0700036,Medical Marijuana Dispensary - Certificate of Operation,Active,,Verdant Creations Columbus,1243 N Cassady Ave,Columbus,OH,43219,Franklin,(614) 407-3111,,2019.10.08,2023.07.02,2025.07.01,No,MME.05200501,YAMINAH RENEE CLINE,39.996197432693606,-82.93042887314242
MMD.0700060,Medical Marijuana Dispensary - Certificate of Operation,Active,,Verilife,1098 N High St,Hillsboro,OH,45133-8500,Highland,(937) 402-4016,,2021.01.22,2023.07.02,2025.07.01,No,MME.05201111,Michelle Elaine Waggoner,39.21942304426216,-83.60842731417605
MMD.0700029,Medical Marijuana Dispensary - Certificate of Operation,Active,,Verilife,5431 Ridge Ave,Cincinnati,OH,45213-2513,Hamilton,(513) 599-1550,,2019.09.04,2023.07.02,2025.07.01,No,MME.05200547,Donneshia Marie Mitchell,39.1710581607312,-84.42605025618603
MMD.0700059,Medical Marijuana Dispensary - Certificate of Operation,Active,,Verilife,502 N Dixie Hwy,Wapakoneta,OH,45895-7757,Auglaize,(419) 738-4665,,2021.01.22,2023.07.02,2025.07.01,No,MME.05200652,Jacqueline Suzanne Strange,40.5745188442211,-84.18313313065326
MMD.0700133,Medical Marijuana Dispensary - Certificate of Operation,Active,,WyldSkye,3534 Dorr St,Toledo,OH,43607-1101,Lucas,(248) 884-0609,,2023.05.02,2023.05.02,2025.07.01,No,MME.05200590,TAEYA LANAE SHERMAN,41.6531265,-83.6273466
MMD.0700058,Medical Marijuana Dispensary - Certificate of Operation,Active,,Zen Leaf Bowling Green,1155 N Main St,Bowling Green,OH,43402-1310,Wood,(419) 882-8200,N/A,2020.12.29,2023.07.02,2025.07.01,No,MME.05200720,Jeremiah Stephen Genson,41.393554,-83.65118983239606
MMD.0700068,Medical Marijuana Dispensary - Certificate of Operation,Active,,Zen Leaf Canton,3224 Cleveland Ave NW,Canton,OH,44709-2815,Stark,(234) 901-5900,N/A,2021.06.30,2023.07.02,2025.07.01,No,MME.05200581,Jack Raymond Hartmann,40.8318420754717,-81.38763433333332
MMD.0700066,Medical Marijuana Dispensary - Certificate of Operation,Active,,Zen Leaf Cincinnati,8420 Vine St,Cincinnati,OH,45216-1116,Hamilton,(513) 440-6340,N/A,2021.07.01,2023.07.02,2025.07.01,No,MME.05200181,Eric L Bell,39.21616109337858,-84.47367467407557
MMD.0700069,Medical Marijuana Dispensary - Certificate of Operation,Active,,Zen Leaf Dayton,5604 Airway Rd,Riverside,OH,45431-1506,Montgomery,(937) 684-4621,N/A,2021.07.08,2023.07.02,2025.07.01,No,MME.05200779,Courtney Jo Branham,39.7708137,-84.1059678
MMD.0700067,Medical Marijuana Dispensary - Certificate of Operation,Active,,Zen Leaf Newark,1250 N 21st St,Newark,OH,43055-3061,Licking,(234) 901-5900,N/A,2021.06.30,2023.07.02,2025.07.01,No,MME.05200847,Cori Winn,40.08240276,-82.4277156
